NORAD_CAT_ID,OBJECT_NAME,OBJECT_TYPE,EPOCH,MEAN_MOTION,ECCENTRICITY,INCLINATION,RA_OF_ASC_NODE,ARG_OF_PERICENTER,MEAN_ANOMALY,BSTAR,MEAN_MOTION_DOT,MEAN_MOTION_DDOT,TLE_LINE0,TLE_LINE1,TLE_LINE2,SEMIMAJOR_AXIS,PERIOD,APOGEE,PERIGEE,DECAYED
51716.0,STARLINK-3543,PAYLOAD,2022-12-02 08:41:21,15.08848943,0.0002743,53.2145,286.1874,30.5656,329.5496,0.00020586,2.99e-05,0.0,0 STARLINK-3543,1 51716U 22016C   22336.36205845  .00002990  00000-0  20586-3 0  9994,2 51716  53.2145 286.1874 0002743  30.5656 329.5496 15.08848943 43273,6917.853,95.437,541.616,537.82,0.0
51716.0,STARLINK-3543,PAYLOAD,2022-12-02 21:24:27,15.08839173,0.0002728,53.2146,283.8083,33.2491,326.8672,-7.6813e-05,-1.511e-05,0.0,0 STARLINK-3543,1 51716U 22016C   22336.89198009 -.00001511  00000-0 -76813-4 0  9990,2 51716  53.2146 283.8083 0002728  33.2491 326.8672 15.08839173 44418,6917.8830000000025,95.438,541.635,537.861,0.0
51716.0,STARLINK-3543,PAYLOAD,2022-12-03 13:18:19,15.08829849,0.0002749,53.2149,280.835,34.0569,326.0599,-0.00013694,-2.467e-05,0.0,0 STARLINK-3543,1 51716U 22016C   22337.55438734 -.00002467  00000-0 -13694-3 0  9994,2 51716  53.2149 280.8350 0002749  34.0569 326.0599 15.08829849 44513,6917.911,95.438,541.678,537.875,0.0
51716.0,STARLINK-3543,PAYLOAD,2022-12-04 02:01:23,15.088412599999998,0.0002787,53.2151,278.4565,31.5933,328.5226,-1.6064e-05,-5.44e-06,0.0,0 STARLINK-3543,1 51716U 22016C   22338.08430270 -.00000544  00000-0 -16064-4 0  9999,2 51716  53.2151 278.4565 0002787  31.5933 328.5226 15.08841260 44599,6917.877,95.437,541.67,537.814,0.0
51716.0,STARLINK-3543,PAYLOAD,2022-12-04 13:09:05,15.08846835,0.0002762,53.2155,276.3737,33.2704,326.8461,3.6223e-05,2.88e-06,0.0,0 STARLINK-3543,1 51716U 22016C   22338.54798089  .00000288  00000-0  36223-4 0  9997,2 51716  53.2155 276.3737 0002762  33.2704 326.8461 15.08846835 43605,6917.859,95.437,541.635,537.814,0.0
51716.0,STARLINK-3543,PAYLOAD,2022-12-05 05:02:57,15.08843065,0.0002824,53.2148,273.3998,35.7274,324.3906,0.00017054,2.427e-05,0.0,0 STARLINK-3543,1 51716U 22016C   22339.21038387  .00002427  00000-0  17054-3 0  9997,2 51716  53.2148 273.3998 0002824  35.7274 324.3906 15.08843065 43701,6917.871,95.437,541.69,537.7819999999998,0.0
51716.0,STARLINK-3543,PAYLOAD,2022-12-05 12:59:52,15.08841317,0.0002827,53.2149,271.9126,32.3667,327.7498,0.00020998,3.055e-05,0.0,0 STARLINK-3543,1 51716U 22016C   22339.54158501  .00003055  00000-0  20998-3 0  9993,2 51716  53.2149 271.9126 0002827  32.3667 327.7498 15.08841317 44815,6917.876,95.437,541.697,537.786,0.0
51716.0,STARLINK-3543,PAYLOAD,2022-12-05 19:21:25,15.08847604,0.0002855,53.215,270.7234,32.7506,327.3663,0.00019424,2.805e-05,0.0,0 STARLINK-3543,1 51716U 22016C   22339.80654144  .00002805  00000-0  19424-3 0  9990,2 51716  53.2150 270.7234 0002855  32.7506 327.3663 15.08847604 43792,6917.857,95.437,541.697,537.747,0.0
51716.0,STARLINK-3543,PAYLOAD,2022-12-06 12:50:40,15.08836045,0.0002845,53.2152,267.4522,32.8213,327.2955,-6.2012e-05,-1.275e-05,0.0,0 STARLINK-3543,1 51716U 22016C   22340.53518533 -.00001275  00000-0 -62012-4 0  9997,2 51716  53.2152 267.4522 0002845  32.8213 327.2955 15.08836045 44962,6917.892,95.438,541.726,537.789,0.0
51716.0,STARLINK-3543,PAYLOAD,2022-12-06 19:12:13,15.08831516,0.0002859,53.2158,266.2638,34.9913,325.1267,-3.4812e-05,-8.42e-06,0.0,0 STARLINK-3543,1 51716U 22016C   22340.80015392 -.00000842  00000-0 -34812-4 0  9998,2 51716  53.2158 266.2638 0002859  34.9913 325.1267 15.08831516 43946,6917.906,95.438,541.749,537.793,0.0
51716.0,STARLINK-3543,PAYLOAD,2022-12-06 22:22:59,15.08828073,0.0002805,53.2163,265.6683,36.3456,323.7726,-5.3404e-05,-1.138e-05,0.0,0 STARLINK-3543,1 51716U 22016C   22340.93263658 -.00001138  00000-0 -53404-4 0  9999,2 51716  53.2163 265.6683 0002805  36.3456 323.7726 15.08828073 45023,6917.917,95.438,541.722,537.841,0.0
51716.0,STARLINK-3543,PAYLOAD,2022-12-07 12:41:27,15.08835054,0.0002714,53.2155,262.9918,31.5523,328.5631,-1.4856e-05,-5.25e-06,0.0,0 STARLINK-3543,1 51716U 22016C   22341.52879398 -.00000525  00000-0 -14856-4 0  9996,2 51716  53.2155 262.9918 0002714  31.5523 328.5631 15.08835054 45111,6917.896,95.438,541.638,537.883,0.0
51716.0,STARLINK-3543,PAYLOAD,2022-12-08 04:35:17,15.08859292,0.000264,53.2154,260.0175,33.315,326.8008,0.00011951,1.615e-05,0.0,0 STARLINK-3543,1 51716U 22016C   22342.19117444  .00001615  00000-0  11951-3 0  9998,2 51716  53.2154 260.0175 0002640  33.3150 326.8008 15.08859292 45218,6917.821,95.436,541.513,537.86,0.0
51716.0,STARLINK-3543,PAYLOAD,2022-12-09 01:15:17,15.08851479,0.0002657,53.2152,256.1518,31.6423,328.4728,0.0003279,4.936e-05,0.0,0 STARLINK-3543,1 51716U 22016C   22343.05228967  .00004936  00000-0  32790-3 0  9990,2 51716  53.2152 256.1518 0002657  31.6423 328.4728 15.08851479 45345,6917.845,95.437,541.548,537.872,0.0
51716.0,STARLINK-3543,PAYLOAD,2022-12-09 04:26:04,15.08847054,0.0002665,53.2153,255.5572,28.1529,331.9607,0.00026115,3.871e-05,0.0,0 STARLINK-3543,1 51716U 22016C   22343.18477229  .00003871  00000-0  26115-3 0  9992,2 51716  53.2153 255.5572 0002665  28.1529 331.9607 15.08847054 44300,6917.859,95.437,541.567,537.88,0.0
51716.0,STARLINK-3543,PAYLOAD,2022-12-09 21:55:22,15.08801442,0.0003118,53.216,252.2887,18.7796,341.3311,-0.00026088,-4.434e-05,0.0,0 STARLINK-3543,1 51716U 22016C   22343.91345969 -.00004434  00000-0 -26088-3 0  9995,2 51716  53.2160 252.2887 0003118  18.7796 341.3311 15.08801442 45473,6917.998000000001,95.44,542.02,537.706,0.0
51716.0,STARLINK-3543,PAYLOAD,2022-12-10 04:16:54,15.08827545,0.000249,53.2153,251.0955,27.9185,332.194,-0.0002052,-3.552e-05,0.0,0 STARLINK-3543,1 51716U 22016C   22344.17840418 -.00003552  00000-0 -20520-3 0  9998,2 51716  53.2153 251.0955 0002490  27.9185 332.1940 15.08827545 45517,6917.918000000002,95.438,541.506,538.061,0.0
51716.0,STARLINK-3543,PAYLOAD,2022-12-11 04:07:39,15.08841769,0.0002631,53.2157,246.6395,33.5218,326.594,5.5266e-05,5.91e-06,0.0,0 STARLINK-3543,1 51716U 22016C   22345.17199056  .00000591  00000-0  55266-4 0  9998,2 51716  53.2157 246.6395 0002631  33.5218 326.5940 15.08841769 45663,6917.875,95.437,541.56,537.92,0.0
51716.0,STARLINK-3543,PAYLOAD,2022-12-12 03:58:27,15.08832004,0.0002788,53.2138,242.1771,28.9164,331.1983,0.00033482,5.043e-05,0.0,0 STARLINK-3543,1 51716U 22016C   22346.16560116  .00005043  00000-0  33482-3 0  9999,2 51716  53.2138 242.1771 0002788  28.9164 331.1983 15.08832004 45810,6917.905,95.438,541.6990000000002,537.841,0.0
51716.0,STARLINK-3543,PAYLOAD,2022-12-13 10:10:47,15.08835495,0.0002754,53.2149,236.5261,30.7876,329.3278,-2.1998e-05,-6.39e-06,0.0,0 STARLINK-3543,1 51716U 22016C   22347.42416562 -.00000639  00000-0 -21998-4 0  9992,2 51716  53.2149 236.5261 0002754  30.7876 329.3278 15.08835495 44943,6917.894,95.438,541.664,537.854,0.0
51716.0,STARLINK-3543,PAYLOAD,2022-12-14 02:04:38,15.08841996,0.0002723,53.2147,233.5523,29.5788,330.5358,5.9509e-05,6.59e-06,0.0,0 STARLINK-3543,1 51716U 22016C   22348.08655905  .00000659  00000-0  59509-4 0  9990,2 51716  53.2147 233.5523 0002723  29.5788 330.5358 15.08841996 46109,6917.874,95.437,541.623,537.856,0.0
51716.0,STARLINK-3543,PAYLOAD,2022-12-14 10:01:34,15.08836739,0.000276,53.2145,232.0654,29.9657,330.1492,5.4879e-05,5.85e-06,0.0,0 STARLINK-3543,1 51716U 22016C   22348.41776292  .00000585  00000-0  54879-4 0  9993,2 51716  53.2145 232.0654 0002760  29.9657 330.1492 15.08836739 45097,6917.89,95.438,541.665,537.846,0.0
51716.0,STARLINK-3543,PAYLOAD,2022-12-14 19:33:53,15.08825466,0.0002477,53.2171,230.2813,12.5984,347.50699999999995,0.00025591,3.785e-05,0.0,0 STARLINK-3543,1 51716U 22016C   22348.81519885  .00003785  00000-0  25591-3 0  9993,2 51716  53.2171 230.2813 0002477  12.5984 347.5070 15.08825466 45155,6917.925,95.438,541.503,538.076,0.0
51716.0,STARLINK-3543,PAYLOAD,2022-12-15 01:55:26,15.08830641,0.0002782,53.2146,229.0911,31.4204,328.6954,5.8775e-05,6.47e-06,0.0,0 STARLINK-3543,1 51716U 22016C   22349.08016693  .00000647  00000-0  58775-4 0  9997,2 51716  53.2146 229.0911 0002782  31.4204 328.6954 15.08830641 46250,6917.909000000002,95.438,541.6990000000002,537.849,0.0
51716.0,STARLINK-3543,PAYLOAD,2022-12-15 11:27:44,15.08839718,0.0002845,53.2147,227.3073,31.3853,328.7309,0.00012448,1.693e-05,0.0,0 STARLINK-3543,1 51716U 22016C   22349.47760118  .00001693  00000-0  12448-3 0  9996,2 51716  53.2147 227.3073 0002845  31.3853 328.7309 15.08839718 46316,6917.880999999999,95.438,541.714,537.778,0.0
51716.0,STARLINK-3543,PAYLOAD,2022-12-15 19:24:39,15.08851308,0.0002865,53.2146,225.8206,31.3121,328.8042,0.00015233,2.137e-05,0.0,0 STARLINK-3543,1 51716U 22016C   22349.80879261  .00002137  00000-0  15233-3 0  9992,2 51716  53.2146 225.8206 0002865  31.3121 328.8042 15.08851308 45308,6917.846,95.437,541.693,537.729,0.0
51716.0,STARLINK-3543,PAYLOAD,2022-12-15 22:35:26,15.08852514,0.000276,53.2139,225.2254,32.1395,327.9765,0.00026857,3.99e-05,0.0,0 STARLINK-3543,1 51716U 22016C   22349.94127514  .00003990  00000-0  26857-3 0  9996,2 51716  53.2139 225.2254 0002760  32.1395 327.9765 15.08852514 46384,6917.842,95.437,541.616,537.798,0.0
51716.0,STARLINK-3543,PAYLOAD,2022-12-16 01:46:12,15.08852039,0.0002678,53.2139,224.6307,31.9259,328.1895,0.00026866,3.991e-05,0.0,0 STARLINK-3543,1 51716U 22016C   22350.07375447  .00003991  00000-0  26866-3 0  9993,2 51716  53.2139 224.6307 0002678  31.9259 328.1895 15.08852039 45344,6917.844,95.437,541.561,537.856,0.0
51716.0,STARLINK-3543,PAYLOAD,2022-12-16 20:50:50,15.08837395,0.0002856999999999,53.2133,221.062,25.7097,334.4037,-4.7902e-05,-1.051e-05,0.0,0 STARLINK-3543,1 51716U 22016C   22350.86863930 -.00001051  00000-0 -47902-4 0  9991,2 51716  53.2133 221.0620 0002857  25.7097 334.4037 15.08837395 46524,6917.888000000001,95.438,541.73,537.7769999999998,0.0
